<?xml version="1.0" encoding="utf-8"?><gpx version="1.1" creator="MySchweizMobil - https://map.schweizmobil.ch/" xmlns:xsi="http://www.w3.org/2001/XMLSchema-instance" xmlns="http://www.topografix.com/GPX/1/1" xsi:schemaLocation="http://www.topografix.com/GPX/1/1 http://www.topografix.com/GPX/1/1/gpx.xsd"><metadata><name>Vouvry</name><bounds minlat="46.332983899861574" minlon="6.839295829646289" maxlat="46.35008108988404" maxlon="6.897435079794377" /></metadata><trk><name>Vouvry</name><trkseg><trkpt lat="46.33707359991968" lon="6.897435079794377"><ele>380.79998779296875</ele></trkpt><trkpt lat="46.33695016987622" lon="6.896796009968966"><ele>380.0999755859375</ele></trkpt><trkpt lat="46.33625185955316" lon="6.89092474989593"><ele>387.1999816894531</ele></trkpt><trkpt lat="46.33587060961872" lon="6.8907201499678195"><ele>386.3999938964844</ele></trkpt><trkpt lat="46.33606991963461" lon="6.889157149940729"><ele>392.1999816894531</ele></trkpt><trkpt lat="46.336134259589016" lon="6.88816137984395"><ele>396.79998779296875</ele></trkpt><trkpt lat="46.33639985974878" lon="6.887396429665387"><ele>402.79998779296875</ele></trkpt><trkpt lat="46.33651382988319" lon="6.886934209614992"><ele>406.6999816894531</ele></trkpt><trkpt lat="46.33664109976962" lon="6.886653669644147"><ele>409.5999755859375</ele></trkpt><trkpt lat="46.33668013988063" lon="6.8866344396956265"><ele>410.0</ele></trkpt><trkpt lat="46.33708254992962" lon="6.88555416977033"><ele>421.5</ele></trkpt><trkpt lat="46.33710248954594" lon="6.885254719760269"><ele>424.5</ele></trkpt><trkpt lat="46.337170639541" lon="6.885228569619358"><ele>425.0</ele></trkpt><trkpt lat="46.33710607979447" lon="6.8847572496160865"><ele>430.0</ele></trkpt><trkpt lat="46.33712617959827" lon="6.88454468967393"><ele>432.1999816894531</ele></trkpt><trkpt lat="46.33694599987939" lon="6.884087929967791"><ele>436.79998779296875</ele></trkpt><trkpt lat="46.33642192976549" lon="6.882263569626957"><ele>456.6999816894531</ele></trkpt><trkpt lat="46.33630692958832" lon="6.882073059678078"><ele>459.6999816894531</ele></trkpt><trkpt lat="46.335900109726936" lon="6.881630459800363"><ele>467.8999938964844</ele></trkpt><trkpt lat="46.335983459837735" lon="6.881456869654357"><ele>468.8999938964844</ele></trkpt><trkpt lat="46.335876299999654" lon="6.881398999597877"><ele>469.5999755859375</ele></trkpt><trkpt lat="46.33578951982781" lon="6.88144067954272"><ele>470.79998779296875</ele></trkpt><trkpt lat="46.33573238970712" lon="6.881422429811209"><ele>471.8999938964844</ele></trkpt><trkpt lat="46.33564394991845" lon="6.881219569593668"><ele>474.5999755859375</ele></trkpt><trkpt lat="46.33540839981288" lon="6.879336719866842"><ele>496.79998779296875</ele></trkpt><trkpt lat="46.3351334198378" lon="6.8782330197282135"><ele>509.29998779296875</ele></trkpt><trkpt lat="46.335150819737464" lon="6.877969199791551"><ele>512.2999877929688</ele></trkpt><trkpt lat="46.33511189976707" lon="6.877830639947206"><ele>513.5</ele></trkpt><trkpt lat="46.3349629198201" lon="6.877628269605339"><ele>516.0999755859375</ele></trkpt><trkpt lat="46.33373037958518" lon="6.876395559869707"><ele>541.1999816894531</ele></trkpt><trkpt lat="46.333366659935564" lon="6.875866869930178"><ele>551.3999938964844</ele></trkpt><trkpt lat="46.33325552986935" lon="6.875590749550611"><ele>555.0999755859375</ele></trkpt><trkpt lat="46.3331599496305" lon="6.875039789825678"><ele>563.3999938964844</ele></trkpt><trkpt lat="46.333182339556515" lon="6.87467786995694"><ele>569.5999755859375</ele></trkpt><trkpt lat="46.333460869733244" lon="6.873474189545959"><ele>584.5999755859375</ele></trkpt><trkpt lat="46.33351327991113" lon="6.873036759905517"><ele>591.5</ele></trkpt><trkpt lat="46.33368943957612" lon="6.8726985598914325"><ele>597.2999877929688</ele></trkpt><trkpt lat="46.333656089846045" lon="6.872560589574277"><ele>599.6999816894531</ele></trkpt><trkpt lat="46.33349938970059" lon="6.872364949900657"><ele>604.8999938964844</ele></trkpt><trkpt lat="46.33355604996905" lon="6.872111109551042"><ele>609.1999816894531</ele></trkpt><trkpt lat="46.33358314959332" lon="6.871630829758942"><ele>616.0</ele></trkpt><trkpt lat="46.3337340997532" lon="6.871648209635168"><ele>617.1999816894531</ele></trkpt><trkpt lat="46.3339772997424" lon="6.871782549656928"><ele>622.0</ele></trkpt><trkpt lat="46.334109919611365" lon="6.871876489836723"><ele>624.8999938964844</ele></trkpt><trkpt lat="46.334194659721106" lon="6.872000539675355"><ele>627.0999755859375</ele></trkpt><trkpt lat="46.33426877995953" lon="6.872305489610881"><ele>631.6999816894531</ele></trkpt><trkpt lat="46.33445831993595" lon="6.872754169628024"><ele>639.8999938964844</ele></trkpt><trkpt lat="46.33446909999475" lon="6.873163149692118"><ele>645.6999816894531</ele></trkpt><trkpt lat="46.33454259997234" lon="6.873363039921969"><ele>648.5999755859375</ele></trkpt><trkpt lat="46.3346940795891" lon="6.873432239983231"><ele>650.8999938964844</ele></trkpt><trkpt lat="46.334639579989016" lon="6.873327089939266"><ele>651.7999877929688</ele></trkpt><trkpt lat="46.33481792965904" lon="6.873408869840205"><ele>654.0999755859375</ele></trkpt><trkpt lat="46.33511320967227" lon="6.873469949699938"><ele>660.0</ele></trkpt><trkpt lat="46.335338219534606" lon="6.873708659783006"><ele>665.0</ele></trkpt><trkpt lat="46.33559829974547" lon="6.874107259791344"><ele>672.0999755859375</ele></trkpt><trkpt lat="46.33582481974736" lon="6.874180229846388"><ele>677.0</ele></trkpt><trkpt lat="46.33591740997508" lon="6.874148099683225"><ele>679.5</ele></trkpt><trkpt lat="46.336196209769696" lon="6.873775039799511"><ele>689.0999755859375</ele></trkpt><trkpt lat="46.336795969866216" lon="6.873775289859623"><ele>702.0999755859375</ele></trkpt><trkpt lat="46.336901649832726" lon="6.87373521970585"><ele>704.5</ele></trkpt><trkpt lat="46.336699589621276" lon="6.873516539577395"><ele>705.2999877929688</ele></trkpt><trkpt lat="46.33683814993128" lon="6.873574839904904"><ele>706.6999816894531</ele></trkpt><trkpt lat="46.336498769931495" lon="6.873006909620017"><ele>714.1999816894531</ele></trkpt><trkpt lat="46.3363990499638" lon="6.872925609815866"><ele>716.3999938964844</ele></trkpt><trkpt lat="46.33622513990849" lon="6.872868979815394"><ele>719.2999877929688</ele></trkpt><trkpt lat="46.336163819767535" lon="6.872785199899226"><ele>720.2999877929688</ele></trkpt><trkpt lat="46.33617716981098" lon="6.872720119543374"><ele>721.0</ele></trkpt><trkpt lat="46.33624586975202" lon="6.872660959605128"><ele>722.1999816894531</ele></trkpt><trkpt lat="46.336992039810866" lon="6.87247315980494"><ele>735.3999938964844</ele></trkpt><trkpt lat="46.33718698984012" lon="6.8724931995384395"><ele>738.7999877929688</ele></trkpt><trkpt lat="46.33741702977568" lon="6.872658339794725"><ele>743.5999755859375</ele></trkpt><trkpt lat="46.33775219973177" lon="6.873121759854257"><ele>751.3999938964844</ele></trkpt><trkpt lat="46.33795568998903" lon="6.8736255299299955"><ele>758.2999877929688</ele></trkpt><trkpt lat="46.337992609944195" lon="6.873669299762696"><ele>757.7999877929688</ele></trkpt><trkpt lat="46.33796787960455" lon="6.873492139857262"><ele>758.8999938964844</ele></trkpt><trkpt lat="46.33812160976231" lon="6.873741989955306"><ele>761.5</ele></trkpt><trkpt lat="46.338342539966106" lon="6.873884379863739"><ele>765.8999938964844</ele></trkpt><trkpt lat="46.338645699899644" lon="6.873919669538736"><ele>772.2999877929688</ele></trkpt><trkpt lat="46.33948483970016" lon="6.873868059832603"><ele>789.3999938964844</ele></trkpt><trkpt lat="46.33958943979815" lon="6.873753969557583"><ele>791.5</ele></trkpt><trkpt lat="46.33971862960607" lon="6.873325299937278"><ele>796.5</ele></trkpt><trkpt lat="46.33992308983579" lon="6.872997679747641"><ele>801.6999816894531</ele></trkpt><trkpt lat="46.34074597992003" lon="6.872394979931414"><ele>817.0</ele></trkpt><trkpt lat="46.34115939959884" lon="6.871868509799242"><ele>826.0</ele></trkpt><trkpt lat="46.341411489993334" lon="6.871639859862626"><ele>830.8999938964844</ele></trkpt><trkpt lat="46.34141519991681" lon="6.871573579963297"><ele>831.6999816894531</ele></trkpt><trkpt lat="46.34137219982222" lon="6.871554549783468"><ele>832.1999816894531</ele></trkpt><trkpt lat="46.341068839654326" lon="6.87171358987689"><ele>837.3999938964844</ele></trkpt><trkpt lat="46.34085309971124" lon="6.871727529913187"><ele>840.5999755859375</ele></trkpt><trkpt lat="46.34015552978963" lon="6.871362699661404"><ele>852.5</ele></trkpt><trkpt lat="46.33988280966878" lon="6.871332439593971"><ele>856.7999877929688</ele></trkpt><trkpt lat="46.339686779771" lon="6.87138462997973"><ele>861.0999755859375</ele></trkpt><trkpt lat="46.339554669801146" lon="6.871499529574066"><ele>864.3999938964844</ele></trkpt><trkpt lat="46.33935225987807" lon="6.871983519755304"><ele>872.2999877929688</ele></trkpt><trkpt lat="46.339286299888045" lon="6.872069149743766"><ele>874.0999755859375</ele></trkpt><trkpt lat="46.33921021968126" lon="6.87205643998459"><ele>875.6999816894531</ele></trkpt><trkpt lat="46.339122619945556" lon="6.871936039999127"><ele>878.5999755859375</ele></trkpt><trkpt lat="46.33919813996181" lon="6.871299339924008"><ele>887.6999816894531</ele></trkpt><trkpt lat="46.33923824969679" lon="6.870472069829702"><ele>898.2999877929688</ele></trkpt><trkpt lat="46.33852895954624" lon="6.868854149710387"><ele>921.5999755859375</ele></trkpt><trkpt lat="46.33954016957432" lon="6.869599459692836"><ele>931.8999938964844</ele></trkpt><trkpt lat="46.33994296984747" lon="6.869699919596314"><ele>936.0</ele></trkpt><trkpt lat="46.34049620991573" lon="6.869931029621512"><ele>941.2999877929688</ele></trkpt><trkpt lat="46.34057473996654" lon="6.869912539608777"><ele>941.8999938964844</ele></trkpt><trkpt lat="46.34059843979776" lon="6.8698312398046255"><ele>942.3999938964844</ele></trkpt><trkpt lat="46.34054828993976" lon="6.8697520098648965"><ele>943.0</ele></trkpt><trkpt lat="46.34014598978683" lon="6.869500879663974"><ele>946.3999938964844</ele></trkpt><trkpt lat="46.33992165978998" lon="6.869237489998341"><ele>949.8999938964844</ele></trkpt><trkpt lat="46.33893998991698" lon="6.867732179816812"><ele>964.2999877929688</ele></trkpt><trkpt lat="46.3387162797153" lon="6.867167079821229"><ele>968.7999877929688</ele></trkpt><trkpt lat="46.33833492966369" lon="6.866469739936292"><ele>967.2999877929688</ele></trkpt><trkpt lat="46.33824179973453" lon="6.865808319766074"><ele>971.0</ele></trkpt><trkpt lat="46.338267219718546" lon="6.865535299759358"><ele>972.2999877929688</ele></trkpt><trkpt lat="46.33837409969419" lon="6.865287389606237"><ele>974.0999755859375</ele></trkpt><trkpt lat="46.338417569641024" lon="6.865027169696987"><ele>976.3999938964844</ele></trkpt><trkpt lat="46.338457389734685" lon="6.863974699750543"><ele>985.2999877929688</ele></trkpt><trkpt lat="46.3383819097653" lon="6.863655209541321"><ele>987.1999816894531</ele></trkpt><trkpt lat="46.33818122977391" lon="6.863112349994481"><ele>991.5999755859375</ele></trkpt><trkpt lat="46.33803574973717" lon="6.862472539767623"><ele>996.0999755859375</ele></trkpt><trkpt lat="46.338080659974366" lon="6.862459069583565"><ele>996.2999877929688</ele></trkpt><trkpt lat="46.33815274992958" lon="6.862484279554337"><ele>997.0</ele></trkpt><trkpt lat="46.3382623498328" lon="6.862807819619775"><ele>999.1999816894531</ele></trkpt><trkpt lat="46.33839838998392" lon="6.8629882098175585"><ele>1001.5</ele></trkpt><trkpt lat="46.339154549874365" lon="6.863123059738427"><ele>1010.6999816894531</ele></trkpt><trkpt lat="46.33950662985444" lon="6.863366099540144"><ele>1015.3999938964844</ele></trkpt><trkpt lat="46.33970557991415" lon="6.863571809604764"><ele>1018.6999816894531</ele></trkpt><trkpt lat="46.33979652961716" lon="6.863765669986606"><ele>1020.8999938964844</ele></trkpt><trkpt lat="46.33985186973587" lon="6.863998879678547"><ele>1023.0</ele></trkpt><trkpt lat="46.33997489977628" lon="6.864824169781059"><ele>1030.0</ele></trkpt><trkpt lat="46.340124539565295" lon="6.865221859887242"><ele>1033.8999938964844</ele></trkpt><trkpt lat="46.34024598961696" lon="6.86543644964695"><ele>1036.3999938964844</ele></trkpt><trkpt lat="46.3409155998379" lon="6.8662086999975145"><ele>1046.7999877929688</ele></trkpt><trkpt lat="46.3410981297493" lon="6.866263139992952"><ele>1049.0</ele></trkpt><trkpt lat="46.341302489861846" lon="6.86625656997785"><ele>1051.3999938964844</ele></trkpt><trkpt lat="46.34168882993981" lon="6.8661615597084165"><ele>1056.1999816894531</ele></trkpt><trkpt lat="46.34206667961553" lon="6.866131599992514"><ele>1060.7999877929688</ele></trkpt><trkpt lat="46.3425243399106" lon="6.865944909863174"><ele>1066.7999877929688</ele></trkpt><trkpt lat="46.342830169945955" lon="6.865902709774673"><ele>1070.8999938964844</ele></trkpt><trkpt lat="46.342893469613045" lon="6.865966989658773"><ele>1072.3999938964844</ele></trkpt><trkpt lat="46.34324423968792" lon="6.865989259909838"><ele>1080.0</ele></trkpt><trkpt lat="46.34342506993562" lon="6.866169209592044"><ele>1085.1999816894531</ele></trkpt><trkpt lat="46.34401127975434" lon="6.866461779922247"><ele>1101.2999877929688</ele></trkpt><trkpt lat="46.34423588961363" lon="6.866368479561061"><ele>1108.2999877929688</ele></trkpt><trkpt lat="46.34428552957252" lon="6.8664022497832775"><ele>1109.7999877929688</ele></trkpt><trkpt lat="46.34438232984394" lon="6.866899509914219"><ele>1119.0999755859375</ele></trkpt><trkpt lat="46.344527679961175" lon="6.867144779767841"><ele>1124.1999816894531</ele></trkpt><trkpt lat="46.34466262999922" lon="6.867538769729435"><ele>1131.8999938964844</ele></trkpt><trkpt lat="46.34470313973725" lon="6.868078189902008"><ele>1140.7999877929688</ele></trkpt><trkpt lat="46.34460903983563" lon="6.8690404198132455"><ele>1153.3999938964844</ele></trkpt><trkpt lat="46.34474782971665" lon="6.869805359747261"><ele>1165.8999938964844</ele></trkpt><trkpt lat="46.34482063958421" lon="6.869973469991237"><ele>1169.3999938964844</ele></trkpt><trkpt lat="46.34487478993833" lon="6.86997289955616"><ele>1170.5999755859375</ele></trkpt><trkpt lat="46.344962739851326" lon="6.869608259759843"><ele>1177.5</ele></trkpt><trkpt lat="46.34513277979568" lon="6.869398639537394"><ele>1183.7999877929688</ele></trkpt><trkpt lat="46.34539078967646" lon="6.868863339535892"><ele>1195.0</ele></trkpt><trkpt lat="46.34550383966416" lon="6.868698999751359"><ele>1200.0999755859375</ele></trkpt><trkpt lat="46.34563096985221" lon="6.8683282299898565"><ele>1209.5999755859375</ele></trkpt><trkpt lat="46.3457533698529" lon="6.867625479586422"><ele>1225.2999877929688</ele></trkpt><trkpt lat="46.34565236978233" lon="6.867184879723936"><ele>1235.2999877929688</ele></trkpt><trkpt lat="46.34565078979358" lon="6.86687313998118"><ele>1242.1999816894531</ele></trkpt><trkpt lat="46.34578198986128" lon="6.86652595968917"><ele>1250.5999755859375</ele></trkpt><trkpt lat="46.34589857980609" lon="6.8660651398822665"><ele>1260.5999755859375</ele></trkpt><trkpt lat="46.34614842990413" lon="6.865698779933155"><ele>1272.0</ele></trkpt><trkpt lat="46.346354729961604" lon="6.865579689852893"><ele>1278.7999877929688</ele></trkpt><trkpt lat="46.34667836967856" lon="6.865537299774587"><ele>1286.7999877929688</ele></trkpt><trkpt lat="46.34683036990464" lon="6.865353819914162"><ele>1291.0</ele></trkpt><trkpt lat="46.346918989904225" lon="6.865054109599441"><ele>1297.2999877929688</ele></trkpt><trkpt lat="46.34689102973789" lon="6.864898519590497"><ele>1300.1999816894531</ele></trkpt><trkpt lat="46.3467636895366" lon="6.864588099997491"><ele>1305.5999755859375</ele></trkpt><trkpt lat="46.34673506999388" lon="6.864302619826049"><ele>1310.8999938964844</ele></trkpt><trkpt lat="46.3467900599353" lon="6.864253199659288"><ele>1312.5999755859375</ele></trkpt><trkpt lat="46.34692383976653" lon="6.864274639636278"><ele>1316.0</ele></trkpt><trkpt lat="46.34723997954279" lon="6.864492129534483"><ele>1324.6999816894531</ele></trkpt><trkpt lat="46.347266969736665" lon="6.864491839893162"><ele>1325.0999755859375</ele></trkpt><trkpt lat="46.34727946994826" lon="6.864420779980719"><ele>1326.2999877929688</ele></trkpt><trkpt lat="46.34725462971255" lon="6.863868429791182"><ele>1339.3999938964844</ele></trkpt><trkpt lat="46.347180989570916" lon="6.863505489658564"><ele>1347.6999816894531</ele></trkpt><trkpt lat="46.3472237396054" lon="6.8631023298949"><ele>1355.5</ele></trkpt><trkpt lat="46.34702272992581" lon="6.862493919674307"><ele>1368.6999816894531</ele></trkpt><trkpt lat="46.34706768998876" lon="6.862454469781369"><ele>1370.3999938964844</ele></trkpt><trkpt lat="46.347356469836086" lon="6.8626332697458565"><ele>1379.1999816894531</ele></trkpt><trkpt lat="46.3473829398863" lon="6.862568029668182"><ele>1380.7999877929688</ele></trkpt><trkpt lat="46.34722847957164" lon="6.862231929786503"><ele>1387.3999938964844</ele></trkpt><trkpt lat="46.34709237981588" lon="6.8620385196991265"><ele>1392.3999938964844</ele></trkpt><trkpt lat="46.3470159699209" lon="6.861168979667127"><ele>1407.3999938964844</ele></trkpt><trkpt lat="46.346877249889076" lon="6.860430009663105"><ele>1420.0</ele></trkpt><trkpt lat="46.346787369810045" lon="6.86044395994395"><ele>1421.2999877929688</ele></trkpt><trkpt lat="46.34667246975005" lon="6.860808909870684"><ele>1423.5999755859375</ele></trkpt><trkpt lat="46.34663603967056" lon="6.86075733974576"><ele>1424.3999938964844</ele></trkpt><trkpt lat="46.34660752955824" lon="6.8604588699527085"><ele>1427.5</ele></trkpt><trkpt lat="46.34629895957187" lon="6.859929559752345"><ele>1433.0</ele></trkpt><trkpt lat="46.346280169673264" lon="6.859773879870772"><ele>1434.5</ele></trkpt><trkpt lat="46.346323389559984" lon="6.859396709594876"><ele>1437.0999755859375</ele></trkpt><trkpt lat="46.34615842998028" lon="6.858839889988303"><ele>1441.6999816894531</ele></trkpt><trkpt lat="46.34602695982903" lon="6.857763119973242"><ele>1450.2999877929688</ele></trkpt><trkpt lat="46.34605047991499" lon="6.857087389566004"><ele>1456.8999938964844</ele></trkpt><trkpt lat="46.34595398977399" lon="6.8569733295589685"><ele>1459.6999816894531</ele></trkpt><trkpt lat="46.34604058973491" lon="6.856879649683833"><ele>1459.6999816894531</ele></trkpt><trkpt lat="46.34613946964964" lon="6.8568655997514725"><ele>1461.0999755859375</ele></trkpt><trkpt lat="46.34643758973107" lon="6.857109209988266"><ele>1464.5</ele></trkpt><trkpt lat="46.34687951998785" lon="6.857364279683679"><ele>1470.0999755859375</ele></trkpt><trkpt lat="46.34701304975897" lon="6.857667339965701"><ele>1472.8999938964844</ele></trkpt><trkpt lat="46.34727925993502" lon="6.858126419596374"><ele>1478.5</ele></trkpt><trkpt lat="46.347469159867615" lon="6.858319249935448"><ele>1481.5999755859375</ele></trkpt><trkpt lat="46.347636309918016" lon="6.858355649746954"><ele>1483.5</ele></trkpt><trkpt lat="46.34772162977606" lon="6.858433459885418"><ele>1484.7999877929688</ele></trkpt><trkpt lat="46.347957889549434" lon="6.858859619591385"><ele>1489.7999877929688</ele></trkpt><trkpt lat="46.34815686987713" lon="6.859104309696704"><ele>1493.2999877929688</ele></trkpt><trkpt lat="46.34842693991959" lon="6.859140389598906"><ele>1496.0999755859375</ele></trkpt><trkpt lat="46.34859757963568" lon="6.859086609911174"><ele>1495.1999816894531</ele></trkpt><trkpt lat="46.348937939852476" lon="6.858797169756144"><ele>1490.2999877929688</ele></trkpt><trkpt lat="46.349087179638445" lon="6.858743609860539"><ele>1487.6999816894531</ele></trkpt><trkpt lat="46.34930699970573" lon="6.858806209638715"><ele>1484.1999816894531</ele></trkpt><trkpt lat="46.34968441957608" lon="6.858763199765235"><ele>1478.1999816894531</ele></trkpt><trkpt lat="46.35008108988404" lon="6.858927839901298"><ele>1470.3999938964844</ele></trkpt><trkpt lat="46.350069869775325" lon="6.858846639748663"><ele>1469.0</ele></trkpt><trkpt lat="46.34994479967281" lon="6.858630509581417"><ele>1465.8999938964844</ele></trkpt><trkpt lat="46.34977263957262" lon="6.858424489852041"><ele>1462.3999938964844</ele></trkpt><trkpt lat="46.34944767970592" lon="6.858207129873335"><ele>1458.0</ele></trkpt><trkpt lat="46.349122039973736" lon="6.857859859708697"><ele>1453.0</ele></trkpt><trkpt lat="46.34905846975744" lon="6.857743619941175"><ele>1451.8999938964844</ele></trkpt><trkpt lat="46.34902135981247" lon="6.857523179613054"><ele>1450.5</ele></trkpt><trkpt lat="46.34885867964476" lon="6.85734304971993"><ele>1447.1999816894531</ele></trkpt><trkpt lat="46.34884923975915" lon="6.857291189953685"><ele>1446.5</ele></trkpt><trkpt lat="46.348909629974514" lon="6.857226109597832"><ele>1443.8999938964844</ele></trkpt><trkpt lat="46.349009399767965" lon="6.857244519982487"><ele>1442.5</ele></trkpt><trkpt lat="46.34930067975074" lon="6.857611119747162"><ele>1437.6999816894531</ele></trkpt><trkpt lat="46.34950796980411" lon="6.857686839997768"><ele>1435.1999816894531</ele></trkpt><trkpt lat="46.34996279980987" lon="6.857982579618692"><ele>1429.3999938964844</ele></trkpt><trkpt lat="46.350031489972025" lon="6.857993019744754"><ele>1428.0999755859375</ele></trkpt><trkpt lat="46.349505479913205" lon="6.857167229987681"><ele>1418.0</ele></trkpt><trkpt lat="46.349349969998" lon="6.856701229698956"><ele>1413.5</ele></trkpt><trkpt lat="46.34931285958737" lon="6.856480779591948"><ele>1411.3999938964844</ele></trkpt><trkpt lat="46.34934776974842" lon="6.856272549834102"><ele>1409.5</ele></trkpt><trkpt lat="46.349308819975704" lon="6.85566239990294"><ele>1404.2999877929688</ele></trkpt><trkpt lat="46.34920859988779" lon="6.855416649952531"><ele>1403.0</ele></trkpt><trkpt lat="46.34907084982842" lon="6.854872519616038"><ele>1400.5999755859375</ele></trkpt><trkpt lat="46.34909644955769" lon="6.854742859955877"><ele>1399.3999938964844</ele></trkpt><trkpt lat="46.349213319830596" lon="6.854624159634113"><ele>1398.6999816894531</ele></trkpt><trkpt lat="46.34925786964595" lon="6.854506759904325"><ele>1398.0</ele></trkpt><trkpt lat="46.34924998972565" lon="6.854322899598628"><ele>1397.2999877929688</ele></trkpt><trkpt lat="46.34906576992944" lon="6.853924249764532"><ele>1394.5999755859375</ele></trkpt><trkpt lat="46.348845079541206" lon="6.852965309750289"><ele>1388.6999816894531</ele></trkpt><trkpt lat="46.34869926981628" lon="6.85260313982144"><ele>1386.5</ele></trkpt><trkpt lat="46.34860546980053" lon="6.851863689720631"><ele>1387.8999938964844</ele></trkpt><trkpt lat="46.34842025954276" lon="6.850878399796784"><ele>1391.3999938964844</ele></trkpt><trkpt lat="46.34826496988535" lon="6.850425409618765"><ele>1394.6999816894531</ele></trkpt><trkpt lat="46.34804786974564" lon="6.850193939637393"><ele>1398.6999816894531</ele></trkpt><trkpt lat="46.34799334965646" lon="6.8500906098634005"><ele>1400.0</ele></trkpt><trkpt lat="46.34795477986336" lon="6.849558409769088"><ele>1403.5</ele></trkpt><trkpt lat="46.34779855981469" lon="6.848962549585849"><ele>1408.5999755859375</ele></trkpt><trkpt lat="46.34766192967072" lon="6.848639269825071"><ele>1411.5</ele></trkpt><trkpt lat="46.34740544995293" lon="6.847758709918708"><ele>1417.1999816894531</ele></trkpt><trkpt lat="46.34698744956404" lon="6.846957869827747"><ele>1418.5</ele></trkpt><trkpt lat="46.34677905961871" lon="6.846674359869212"><ele>1418.0999755859375</ele></trkpt><trkpt lat="46.346652689855546" lon="6.846558819990605"><ele>1417.2999877929688</ele></trkpt><trkpt lat="46.34638182958588" lon="6.846405899617821"><ele>1414.5999755859375</ele></trkpt><trkpt lat="46.34599517984316" lon="6.84597495989874"><ele>1411.5999755859375</ele></trkpt><trkpt lat="46.34580307966098" lon="6.845555399544537"><ele>1411.5999755859375</ele></trkpt><trkpt lat="46.34558267984539" lon="6.845212279818952"><ele>1410.5</ele></trkpt><trkpt lat="46.34526831982657" lon="6.844896169845015"><ele>1410.0</ele></trkpt><trkpt lat="46.34501778986305" lon="6.844520909711719"><ele>1410.3999938964844</ele></trkpt><trkpt lat="46.34484624955803" lon="6.843957729637623"><ele>1410.2999877929688</ele></trkpt><trkpt lat="46.344473629724234" lon="6.843153849709779"><ele>1410.6999816894531</ele></trkpt><trkpt lat="46.344286259729415" lon="6.842557869851589"><ele>1411.0999755859375</ele></trkpt><trkpt lat="46.344271829817444" lon="6.841427919920534"><ele>1417.0</ele></trkpt><trkpt lat="46.34429632965475" lon="6.84122812980786"><ele>1417.6999816894531</ele></trkpt><trkpt lat="46.34443495981395" lon="6.840957719832659"><ele>1420.0999755859375</ele></trkpt><trkpt lat="46.34439276997" lon="6.840532119851559"><ele>1422.5999755859375</ele></trkpt><trkpt lat="46.34409398958087" lon="6.840221849735826"><ele>1426.7999877929688</ele></trkpt><trkpt lat="46.34400315955281" lon="6.839801199734211"><ele>1429.8999938964844</ele></trkpt><trkpt lat="46.34394719963893" lon="6.839732329826802"><ele>1430.3999938964844</ele></trkpt><trkpt lat="46.34348073974252" lon="6.8398303599096835"><ele>1433.5</ele></trkpt><trkpt lat="46.34342063963413" lon="6.839812059886754"><ele>1433.8999938964844</ele></trkpt><trkpt lat="46.34338002977893" lon="6.839719759766012"><ele>1434.1999816894531</ele></trkpt><trkpt lat="46.34338413970545" lon="6.839391859713942"><ele>1434.7999877929688</ele></trkpt><trkpt lat="46.34325876971707" lon="6.839295829646289"><ele>1436.0999755859375</ele></trkpt><trkpt lat="46.3431644695811" lon="6.840141179971397"><ele>1440.1999816894531</ele></trkpt><trkpt lat="46.34288666956127" lon="6.840378059539944"><ele>1436.5</ele></trkpt><trkpt lat="46.34261756995693" lon="6.840523909777403"><ele>1430.0999755859375</ele></trkpt><trkpt lat="46.34257317986339" lon="6.840602329932153"><ele>1428.8999938964844</ele></trkpt><trkpt lat="46.342439209576696" lon="6.841141309589148"><ele>1421.5999755859375</ele></trkpt><trkpt lat="46.342041719704866" lon="6.842205859720707"><ele>1403.8999938964844</ele></trkpt><trkpt lat="46.3418827499263" lon="6.842766139656305"><ele>1393.2999877929688</ele></trkpt><trkpt lat="46.34185612993315" lon="6.842972699552774"><ele>1389.8999938964844</ele></trkpt><trkpt lat="46.341802479699254" lon="6.842896919697523"><ele>1386.5999755859375</ele></trkpt><trkpt lat="46.3416680698283" lon="6.8429633397608995"><ele>1383.5999755859375</ele></trkpt><trkpt lat="46.34157772967592" lon="6.842925359960645"><ele>1382.0999755859375</ele></trkpt><trkpt lat="46.34149777982384" lon="6.843082109931856"><ele>1376.8999938964844</ele></trkpt><trkpt lat="46.341275789774954" lon="6.8430196098051965"><ele>1369.5</ele></trkpt><trkpt lat="46.341191679704934" lon="6.843072489835322"><ele>1366.0999755859375</ele></trkpt><trkpt lat="46.341156179551035" lon="6.843163799960166"><ele>1363.0</ele></trkpt><trkpt lat="46.34121076995507" lon="6.843280099797994"><ele>1359.5999755859375</ele></trkpt><trkpt lat="46.341202499810606" lon="6.843384099658579"><ele>1357.5999755859375</ele></trkpt><trkpt lat="46.341302369721234" lon="6.843590829987079"><ele>1352.6999816894531</ele></trkpt><trkpt lat="46.341257529798895" lon="6.843617299571633"><ele>1352.5999755859375</ele></trkpt><trkpt lat="46.34117646981031" lon="6.843566229566932"><ele>1349.6999816894531</ele></trkpt><trkpt lat="46.34120751963928" lon="6.843704089988023"><ele>1347.6999816894531</ele></trkpt><trkpt lat="46.341127309948206" lon="6.8436608095653355"><ele>1344.2999877929688</ele></trkpt><trkpt lat="46.34105108957738" lon="6.843671519774944"><ele>1340.6999816894531</ele></trkpt><trkpt lat="46.34106016997248" lon="6.8437233795411885"><ele>1338.6999816894531</ele></trkpt><trkpt lat="46.34101557964459" lon="6.843762829899788"><ele>1336.5999755859375</ele></trkpt><trkpt lat="46.34103386988863" lon="6.84385354956612"><ele>1334.0999755859375</ele></trkpt><trkpt lat="46.340881269890815" lon="6.843881209846586"><ele>1329.1999816894531</ele></trkpt><trkpt lat="46.340935789979994" lon="6.843984519597143"><ele>1326.2999877929688</ele></trkpt><trkpt lat="46.34098198963329" lon="6.844217809848487"><ele>1320.8999938964844</ele></trkpt><trkpt lat="46.34083767980337" lon="6.844180429819971"><ele>1316.0999755859375</ele></trkpt><trkpt lat="46.340726639609784" lon="6.844207619782537"><ele>1312.1999816894531</ele></trkpt><trkpt lat="46.340748799964786" lon="6.8443502597510815"><ele>1307.5999755859375</ele></trkpt><trkpt lat="46.34048799984157" lon="6.844366109929979"><ele>1299.5999755859375</ele></trkpt><trkpt lat="46.34068677993491" lon="6.844532779883593"><ele>1298.0999755859375</ele></trkpt><trkpt lat="46.34071522997692" lon="6.844844199717045"><ele>1290.5</ele></trkpt><trkpt lat="46.34063437953591" lon="6.844832099974155"><ele>1288.6999816894531</ele></trkpt><trkpt lat="46.340625589713454" lon="6.844871159642935"><ele>1287.8999938964844</ele></trkpt><trkpt lat="46.340752579737455" lon="6.845103569794446"><ele>1283.5</ele></trkpt><trkpt lat="46.34071836993098" lon="6.845441649667919"><ele>1275.8999938964844</ele></trkpt><trkpt lat="46.340591999702156" lon="6.845326139591634"><ele>1272.8999938964844</ele></trkpt><trkpt lat="46.34062854992226" lon="6.845468609593809"><ele>1269.8999938964844</ele></trkpt><trkpt lat="46.34057498956099" lon="6.845547129865736"><ele>1267.6999816894531</ele></trkpt><trkpt lat="46.340585339814425" lon="6.845806799829006"><ele>1263.7999877929688</ele></trkpt><trkpt lat="46.340550819877535" lon="6.845845359843224"><ele>1261.7999877929688</ele></trkpt><trkpt lat="46.34043207997456" lon="6.845743529964238"><ele>1257.3999938964844</ele></trkpt><trkpt lat="46.340350239537656" lon="6.845575569663197"><ele>1253.3999938964844</ele></trkpt><trkpt lat="46.34027817985043" lon="6.845524399541318"><ele>1251.5</ele></trkpt><trkpt lat="46.340212389826775" lon="6.845534729771316"><ele>1249.1999816894531</ele></trkpt><trkpt lat="46.34004559973255" lon="6.8457737299613655"><ele>1241.0999755859375</ele></trkpt><trkpt lat="46.33996568992734" lon="6.846008399967104"><ele>1234.5999755859375</ele></trkpt><trkpt lat="46.33997488999739" lon="6.846047269646078"><ele>1233.8999938964844</ele></trkpt><trkpt lat="46.340137069579214" lon="6.84609744977206"><ele>1228.7999877929688</ele></trkpt><trkpt lat="46.340201179962605" lon="6.846278589684516"><ele>1224.1999816894531</ele></trkpt><trkpt lat="46.34019346954301" lon="6.846525459550321"><ele>1217.7999877929688</ele></trkpt><trkpt lat="46.34002817980945" lon="6.846569349989295"><ele>1212.5999755859375</ele></trkpt><trkpt lat="46.339736269786954" lon="6.846829189918935"><ele>1201.7999877929688</ele></trkpt><trkpt lat="46.33954891981557" lon="6.846818769816309"><ele>1197.1999816894531</ele></trkpt><trkpt lat="46.33956599980593" lon="6.8469528798013926"><ele>1193.0</ele></trkpt><trkpt lat="46.33939765999094" lon="6.847102269995958"><ele>1188.6999816894531</ele></trkpt><trkpt lat="46.339468139689416" lon="6.8471957999281585"><ele>1186.0999755859375</ele></trkpt><trkpt lat="46.33947767969221" lon="6.84729959955439"><ele>1184.0999755859375</ele></trkpt><trkpt lat="46.33958554966375" lon="6.847285439725965"><ele>1180.8999938964844</ele></trkpt><trkpt lat="46.33962258975953" lon="6.847315939608961"><ele>1179.1999816894531</ele></trkpt><trkpt lat="46.33974007982761" lon="6.84755650954321"><ele>1173.0</ele></trkpt><trkpt lat="46.33974015992135" lon="6.847606389783323"><ele>1171.8999938964844</ele></trkpt><trkpt lat="46.33959669992328" lon="6.84766197996214"><ele>1166.1999816894531</ele></trkpt><trkpt lat="46.33966214954853" lon="6.84784492990002"><ele>1160.6999816894531</ele></trkpt><trkpt lat="46.33976017963141" lon="6.847958939615637"><ele>1158.0999755859375</ele></trkpt><trkpt lat="46.33969722967595" lon="6.847998589742929"><ele>1154.8999938964844</ele></trkpt><trkpt lat="46.339706839993596" lon="6.848115379922092"><ele>1151.1999816894531</ele></trkpt><trkpt lat="46.33966237958521" lon="6.848180809989572"><ele>1148.0</ele></trkpt><trkpt lat="46.3396197296679" lon="6.848661849740893"><ele>1136.1999816894531</ele></trkpt><trkpt lat="46.33961086999625" lon="6.84868792956695"><ele>1136.1999816894531</ele></trkpt><trkpt lat="46.33953863987699" lon="6.8486367599107325"><ele>1133.1999816894531</ele></trkpt><trkpt lat="46.33945069974288" lon="6.848988399840891"><ele>1123.1999816894531</ele></trkpt><trkpt lat="46.33924528956413" lon="6.849276379682124"><ele>1113.5</ele></trkpt><trkpt lat="46.33894019993022" lon="6.849422569852322"><ele>1101.0</ele></trkpt><trkpt lat="46.338788439985365" lon="6.84963125968352"><ele>1093.0999755859375</ele></trkpt><trkpt lat="46.33873155992478" lon="6.849126109853387"><ele>1087.3999938964844</ele></trkpt><trkpt lat="46.338575249537826" lon="6.848478389903903"><ele>1079.2999877929688</ele></trkpt><trkpt lat="46.33850287972018" lon="6.8484012498520315"><ele>1078.1999816894531</ele></trkpt><trkpt lat="46.33828637981787" lon="6.8482867097482085"><ele>1074.5999755859375</ele></trkpt><trkpt lat="46.33818949991837" lon="6.848287769593298"><ele>1073.5</ele></trkpt><trkpt lat="46.33836501976475" lon="6.84866822976619"><ele>1071.0</ele></trkpt><trkpt lat="46.33832333981991" lon="6.849473179783672"><ele>1065.7999877929688</ele></trkpt><trkpt lat="46.338030899874866" lon="6.850478529930115"><ele>1055.0999755859375</ele></trkpt><trkpt lat="46.33796055987477" lon="6.851464309729636"><ele>1048.3999938964844</ele></trkpt><trkpt lat="46.337892489973456" lon="6.851713899988681"><ele>1046.5</ele></trkpt><trkpt lat="46.33784853992984" lon="6.851635149680078"><ele>1046.5</ele></trkpt><trkpt lat="46.33787128981203" lon="6.851285519544035"><ele>1047.1999816894531</ele></trkpt><trkpt lat="46.33782054996118" lon="6.85095746954903"><ele>1048.0</ele></trkpt><trkpt lat="46.337806979659945" lon="6.850043249782175"><ele>1045.6999816894531</ele></trkpt><trkpt lat="46.33768971962854" lon="6.84924055961892"><ele>1045.0999755859375</ele></trkpt><trkpt lat="46.33767491998151" lon="6.848817829973996"><ele>1045.6999816894531</ele></trkpt><trkpt lat="46.33760100975633" lon="6.848618879914284"><ele>1046.1999816894531</ele></trkpt><trkpt lat="46.33712536981329" lon="6.848353779874742"><ele>1045.3999938964844</ele></trkpt><trkpt lat="46.336797929834574" lon="6.848253439646214"><ele>1044.8999938964844</ele></trkpt><trkpt lat="46.336568319704384" lon="6.848263079766184"><ele>1044.6999816894531</ele></trkpt><trkpt lat="46.33597977971658" lon="6.848413649946451"><ele>1044.3999938964844</ele></trkpt><trkpt lat="46.335612799972296" lon="6.848318939562887"><ele>1044.0</ele></trkpt><trkpt lat="46.335508569609374" lon="6.848325919825584"><ele>1044.0</ele></trkpt><trkpt lat="46.33540113968775" lon="6.848459439817816"><ele>1044.0</ele></trkpt><trkpt lat="46.33517782995477" lon="6.849263979587704"><ele>1043.8999938964844</ele></trkpt><trkpt lat="46.33508015982807" lon="6.849354129750282"><ele>1043.7999877929688</ele></trkpt><trkpt lat="46.33501073997468" lon="6.84930942999199"><ele>1043.5999755859375</ele></trkpt><trkpt lat="46.33414737973362" lon="6.848148399963975"><ele>1043.1999816894531</ele></trkpt><trkpt lat="46.3339400999248" lon="6.847939749713987"><ele>1042.6999816894531</ele></trkpt><trkpt lat="46.333994729910046" lon="6.848117079585791"><ele>1038.8999938964844</ele></trkpt><trkpt lat="46.33412972977385" lon="6.848351459950209"><ele>1035.2999877929688</ele></trkpt><trkpt lat="46.33416105993092" lon="6.84852955956012"><ele>1031.2999877929688</ele></trkpt><trkpt lat="46.334336139727384" lon="6.848999089561403"><ele>1022.6999816894531</ele></trkpt><trkpt lat="46.33447707956657" lon="6.849200809840113"><ele>1019.7999877929688</ele></trkpt><trkpt lat="46.334585879929364" lon="6.849535349756479"><ele>1012.5</ele></trkpt><trkpt lat="46.334684419911355" lon="6.849714809563011"><ele>1010.8999938964844</ele></trkpt><trkpt lat="46.33481550961733" lon="6.850340029690415"><ele>1002.8999938964844</ele></trkpt><trkpt lat="46.33479860983789" lon="6.850515539757907"><ele>1000.5</ele></trkpt><trkpt lat="46.334827959537506" lon="6.850675609894097"><ele>995.6999816894531</ele></trkpt><trkpt lat="46.33505157986656" lon="6.8509147595614195"><ele>991.6999816894531</ele></trkpt><trkpt lat="46.335271569900215" lon="6.851269529666752"><ele>983.0</ele></trkpt><trkpt lat="46.33556922990829" lon="6.851387089584023"><ele>973.0999755859375</ele></trkpt><trkpt lat="46.33564779954031" lon="6.851479749660939"><ele>969.7999877929688</ele></trkpt><trkpt lat="46.3355517196469" lon="6.851669759955257"><ele>967.5</ele></trkpt><trkpt lat="46.335588689893484" lon="6.851842739619315"><ele>962.0</ele></trkpt><trkpt lat="46.33549984963611" lon="6.851955399848521"><ele>959.0999755859375</ele></trkpt><trkpt lat="46.3354651699774" lon="6.852135779801756"><ele>957.3999938964844</ele></trkpt><trkpt lat="46.33548439992592" lon="6.852757419925183"><ele>949.0</ele></trkpt><trkpt lat="46.33544828975573" lon="6.853097559884191"><ele>943.6999816894531</ele></trkpt><trkpt lat="46.33512876974419" lon="6.853950389660895"><ele>926.6999816894531</ele></trkpt><trkpt lat="46.33488346962258" lon="6.854910859838128"><ele>904.8999938964844</ele></trkpt><trkpt lat="46.33456929959357" lon="6.8557933596894145"><ele>886.6999816894531</ele></trkpt><trkpt lat="46.334268749691546" lon="6.856823359616101"><ele>870.1999816894531</ele></trkpt><trkpt lat="46.33394656982273" lon="6.857339819893241"><ele>859.5999755859375</ele></trkpt><trkpt lat="46.333821289706975" lon="6.857435319572687"><ele>860.2999877929688</ele></trkpt><trkpt lat="46.333722059614956" lon="6.857573399785906"><ele>862.0</ele></trkpt><trkpt lat="46.333579579833895" lon="6.857645699754357"><ele>863.3999938964844</ele></trkpt><trkpt lat="46.33354152971879" lon="6.857874029781669"><ele>863.5999755859375</ele></trkpt><trkpt lat="46.33348849974573" lon="6.857970709912479"><ele>862.8999938964844</ele></trkpt><trkpt lat="46.33329067984596" lon="6.858092819806188"><ele>860.7999877929688</ele></trkpt><trkpt lat="46.333167649805546" lon="6.858221539761871"><ele>859.0</ele></trkpt><trkpt lat="46.33311595954001" lon="6.858403269667178"><ele>857.3999938964844</ele></trkpt><trkpt lat="46.33310798974708" lon="6.858657249715179"><ele>855.3999938964844</ele></trkpt><trkpt lat="46.332983899861574" lon="6.859035849571228"><ele>851.1999816894531</ele></trkpt><trkpt lat="46.33302684966475" lon="6.859219019766897"><ele>849.0</ele></trkpt><trkpt lat="46.33308636955917" lon="6.859264619648457"><ele>848.3999938964844</ele></trkpt><trkpt lat="46.333201959729195" lon="6.859246499836445"><ele>847.0999755859375</ele></trkpt><trkpt lat="46.33352771960199" lon="6.858915749937296"><ele>843.1999816894531</ele></trkpt><trkpt lat="46.333663389552385" lon="6.858603379689157"><ele>839.8999938964844</ele></trkpt><trkpt lat="46.333718579728156" lon="6.858629289548844"><ele>839.2999877929688</ele></trkpt><trkpt lat="46.33368221996352" lon="6.858941369690001"><ele>837.6999816894531</ele></trkpt><trkpt lat="46.33351043984294" lon="6.859422429930419"><ele>834.7999877929688</ele></trkpt><trkpt lat="46.333576099947095" lon="6.860369009897113"><ele>818.8999938964844</ele></trkpt><trkpt lat="46.333310349844396" lon="6.861634959932417"><ele>797.6999816894531</ele></trkpt><trkpt lat="46.333359089680016" lon="6.86221236968413"><ele>787.2999877929688</ele></trkpt><trkpt lat="46.33325251983479" lon="6.863914799876511"><ele>757.6999816894531</ele></trkpt><trkpt lat="46.333241359796375" lon="6.863965569995344"><ele>757.0</ele></trkpt><trkpt lat="46.333082009572536" lon="6.864084139931947"><ele>753.6999816894531</ele></trkpt><trkpt lat="46.33301877975464" lon="6.864192599896342"><ele>752.6999816894531</ele></trkpt><trkpt lat="46.333038799930364" lon="6.865459139924496"><ele>732.5999755859375</ele></trkpt><trkpt lat="46.33311475999653" lon="6.865607169922441"><ele>728.8999938964844</ele></trkpt><trkpt lat="46.33334807958454" lon="6.865673529915512"><ele>722.6999816894531</ele></trkpt><trkpt lat="46.33337664976716" lon="6.865771929733455"><ele>721.0</ele></trkpt><trkpt lat="46.33322996972129" lon="6.866171399597079"><ele>713.5999755859375</ele></trkpt><trkpt lat="46.333242929540575" lon="6.8669889299198985"><ele>700.6999816894531</ele></trkpt><trkpt lat="46.33338136970997" lon="6.868179679848254"><ele>678.7999877929688</ele></trkpt><trkpt lat="46.33350163977593" lon="6.868679719977081"><ele>669.7999877929688</ele></trkpt><trkpt lat="46.33356507960707" lon="6.869146589655429"><ele>662.0</ele></trkpt><trkpt lat="46.333477769978344" lon="6.869458539877087"><ele>658.8999938964844</ele></trkpt><trkpt lat="46.33347655972466" lon="6.869664399884641"><ele>654.1999816894531</ele></trkpt><trkpt lat="46.33359591988847" lon="6.8703943197615445"><ele>639.0</ele></trkpt><trkpt lat="46.33357726968825" lon="6.870710099581629"><ele>633.6999816894531</ele></trkpt><trkpt lat="46.33361968956888" lon="6.871060309931636"><ele>627.3999938964844</ele></trkpt><trkpt lat="46.33355604996905" lon="6.872111109551042"><ele>609.1999816894531</ele></trkpt><trkpt lat="46.33349938970059" lon="6.872364949900657"><ele>604.8999938964844</ele></trkpt><trkpt lat="46.33368998998776" lon="6.872647899668664"><ele>598.0999755859375</ele></trkpt><trkpt lat="46.333658839575946" lon="6.872785369865596"><ele>595.8999938964844</ele></trkpt><trkpt lat="46.33351327991113" lon="6.873036759905517"><ele>591.5</ele></trkpt><trkpt lat="46.333460869733244" lon="6.873474189545959"><ele>584.5999755859375</ele></trkpt><trkpt lat="46.333182339556515" lon="6.87467786995694"><ele>569.5999755859375</ele></trkpt><trkpt lat="46.3331599496305" lon="6.875039789825678"><ele>563.3999938964844</ele></trkpt><trkpt lat="46.333209899719805" lon="6.875405379571021"><ele>557.7999877929688</ele></trkpt><trkpt lat="46.33331291982904" lon="6.875751839950681"><ele>553.0</ele></trkpt><trkpt lat="46.33364520967007" lon="6.87628994975239"><ele>543.5</ele></trkpt><trkpt lat="46.3349629198201" lon="6.877628269605339"><ele>516.0999755859375</ele></trkpt><trkpt lat="46.33511189976707" lon="6.877830639947206"><ele>513.5</ele></trkpt><trkpt lat="46.335150819737464" lon="6.877969199791551"><ele>512.2999877929688</ele></trkpt><trkpt lat="46.3351334198378" lon="6.8782330197282135"><ele>509.29998779296875</ele></trkpt><trkpt lat="46.33540839981288" lon="6.879336719866842"><ele>496.79998779296875</ele></trkpt><trkpt lat="46.33564394991845" lon="6.881219569593668"><ele>474.5999755859375</ele></trkpt><trkpt lat="46.33573238970712" lon="6.881422429811209"><ele>471.8999938964844</ele></trkpt><trkpt lat="46.33578951982781" lon="6.88144067954272"><ele>470.79998779296875</ele></trkpt><trkpt lat="46.335876299999654" lon="6.881398999597877"><ele>469.5999755859375</ele></trkpt><trkpt lat="46.335983459837735" lon="6.881456869654357"><ele>468.8999938964844</ele></trkpt><trkpt lat="46.335900109726936" lon="6.881630459800363"><ele>467.8999938964844</ele></trkpt><trkpt lat="46.33630692958832" lon="6.882073059678078"><ele>459.6999816894531</ele></trkpt><trkpt lat="46.33642192976549" lon="6.882263569626957"><ele>456.6999816894531</ele></trkpt><trkpt lat="46.33694599987939" lon="6.884087929967791"><ele>436.79998779296875</ele></trkpt><trkpt lat="46.33712617959827" lon="6.88454468967393"><ele>432.1999816894531</ele></trkpt><trkpt lat="46.33710607979447" lon="6.8847572496160865"><ele>430.0</ele></trkpt><trkpt lat="46.337170639541" lon="6.885228569619358"><ele>425.0</ele></trkpt><trkpt lat="46.33710248954594" lon="6.885254719760269"><ele>424.5</ele></trkpt><trkpt lat="46.33708254992962" lon="6.88555416977033"><ele>421.5</ele></trkpt><trkpt lat="46.33668013988063" lon="6.8866344396956265"><ele>410.0</ele></trkpt><trkpt lat="46.33664109976962" lon="6.886653669644147"><ele>409.5999755859375</ele></trkpt><trkpt lat="46.33651382988319" lon="6.886934209614992"><ele>406.6999816894531</ele></trkpt><trkpt lat="46.33639985974878" lon="6.887396429665387"><ele>402.79998779296875</ele></trkpt><trkpt lat="46.336134259589016" lon="6.88816137984395"><ele>396.79998779296875</ele></trkpt><trkpt lat="46.33606991963461" lon="6.889157149940729"><ele>392.1999816894531</ele></trkpt><trkpt lat="46.33587060961872" lon="6.8907201499678195"><ele>386.3999938964844</ele></trkpt><trkpt lat="46.33625185955316" lon="6.89092474989593"><ele>387.1999816894531</ele></trkpt><trkpt lat="46.33695016987622" lon="6.896796009968966"><ele>380.0999755859375</ele></trkpt><trkpt lat="46.33708533970639" lon="6.896656979806721"><ele>380.0</ele></trkpt><trkpt lat="46.33794346963987" lon="6.896189919672906"><ele>379.1999816894531</ele></trkpt></trkseg></trk></gpx>